     2              NAVIGATION DATA                         RINEX VERSION / TYPE
CCRINEXN V1.6.0 UX  CDDIS               02-MAR-24 23:31     PGM / RUN BY / DATE 
IGS BROADCAST EPHEMERIS FILE                                COMMENT             
    0.2794D-07  0.7451D-08 -0.1192D-06  0.5960D-07          ION ALPHA           
    0.1372D+06 -0.3277D+05 -0.6554D+05 -0.5898D+06          ION BETA            
   -0.279396772385D-08-0.799360577730D-14   589824     2303 DELTA-UTC: A0,A1,T,W
    18                                                      LEAP SECONDS        
                                                            END OF HEADER       
13 24  3  1  8  0  0.0 0.630177557468D-03 0.341060513165D-11 0.000000000000D+00
    0.620000000000D+02-0.343750000000D+02 0.459054835762D-08 0.217831925085D+01
   -0.188313424587D-05 0.782470474951D-02 0.643730163574D-05 0.515365176773D+04
    0.460800000000D+06-0.875443220139D-07-0.400153955698D+00-0.162050127983D-06
    0.971241461088D+00 0.260781250000D+03 0.935904374985D+00-0.794533095493D-08
   -0.144648882349D-09 0.100000000000D+01 0.230300000000D+04 0.000000000000D+00
    0.200000000000D+01 0.000000000000D+00-0.111758708954D-07 0.620000000000D+02
    0.454188000000D+06 0.400000000000D+01 0.000000000000D+00 0.000000000000D+00
14 24  3  1  8  0  0.0 0.339064747095D-03 0.989075488178D-11 0.000000000000D+00
    0.200000000000D+03 0.788125000000D+02 0.474876923387D-08-0.106330492488D+01
    0.403448939323D-05 0.403607904445D-02 0.715442001820D-05 0.515369198036D+04
    0.460800000000D+06 0.782310962677D-07 0.157956658066D+01-0.147148966789D-06
    0.946093537965D+00 0.236781250000D+03-0.296073458426D+01-0.817926927083D-08
    0.489306095849D-10 0.100000000000D+01 0.230300000000D+04 0.000000000000D+00
    0.200000000000D+01 0.000000000000D+00-0.791624188423D-08 0.200000000000D+03
    0.453618000000D+06 0.400000000000D+01 0.000000000000D+00 0.000000000000D+00
15 24  3  1  8  0  0.0 0.133006833494D-03 0.397903932026D-11 0.000000000000D+00
    0.940000000000D+02-0.262187500000D+02 0.559951895673D-08 0.150933698341D+01
   -0.160373747349D-05 0.154550409643D-01 0.562146306038D-05 0.515360757256D+04
    0.460800000000D+06-0.264495611191D-06-0.690376145280D+00-0.307336449623D-06
    0.934626311235D+00 0.261593750000D+03 0.129380717190D+01-0.861428739107D-08
    0.460733477113D-10 0.100000000000D+01 0.230300000000D+04 0.000000000000D+00
    0.200000000000D+01 0.000000000000D+00-0.102445483208D-07 0.940000000000D+02
    0.453618000000D+06 0.400000000000D+01 0.000000000000D+00 0.000000000000D+00
17 24  3  1  8  0  0.0 0.715276226401D-03-0.136424205266D-11 0.000000000000D+00
    0.160000000000D+02-0.540625000000D+01 0.427267797419D-08 0.251143017256D+01
   -0.180676579475D-06 0.135104180081D-01 0.350549817085D-05 0.515368143082D+04
    0.460800000000D+06 0.169500708580D-06 0.266213713455D+01-0.130385160446D-07
    0.970260050791D+00 0.313187500000D+03-0.133246893975D+01-0.791925844033D-08
   -0.192508018732D-09 0.100000000000D+01 0.230300000000D+04 0.000000000000D+00
    0.200000000000D+01 0.000000000000D+00-0.111758708954D-07 0.160000000000D+02
    0.453618000000D+06 0.400000000000D+01 0.000000000000D+00 0.000000000000D+00
18 24  3  1  8  0  0.0-0.566480215639D-03-0.795807864051D-11 0.000000000000D+00
    0.130000000000D+02-0.654687500000D+02 0.405516891406D-08 0.455233075931D+00
   -0.335834920406D-05 0.385919096880D-02 0.859797000885D-05 0.515362586784D+04
    0.460800000000D+06 0.745058059692D-07-0.261703901868D+01 0.614672899246D-07
    0.974751264886D+00 0.221093750000D+03-0.302923284284D+01-0.792747306822D-08
   -0.500020827874D-10 0.100000000000D+01 0.230300000000D+04 0.000000000000D+00
    0.200000000000D+01 0.000000000000D+00-0.838190317154D-08 0.525000000000D+03
    0.453618000000D+06 0.400000000000D+01 0.000000000000D+00 0.000000000000D+00
19 24  3  1  8  0  0.0 0.447778962553D-03 0.534328137292D-11 0.000000000000D+00
    0.580000000000D+02-0.158750000000D+02 0.438661129140D-08-0.173704163805D+01
   -0.679865479469D-06 0.952199462336D-02 0.422075390816D-05 0.515368729591D+04
    0.460800000000D+06-0.165775418282D-06 0.270650500413D+01-0.540167093277D-07
    0.969451002966D+00 0.305562500000D+03 0.248655232753D+01-0.820034157714D-08
   -0.360729311538D-10 0.100000000000D+01 0.230300000000D+04 0.000000000000D+00
    0.200000000000D+01 0.000000000000D+00-0.153668224812D-07 0.580000000000D+02
    0.453618000000D+06 0.400000000000D+01 0.000000000000D+00 0.000000000000D+00
20 24  3  1  8  0  0.0 0.385590363294D-03-0.136424205266D-11 0.000000000000D+00
    0.880000000000D+02 0.406250000000D+00 0.471662503779D-08 0.998124707878D+00
   -0.158324837685D-06 0.382194737904D-02 0.881962478161D-05 0.515373082733D+04
    0.460800000000D+06-0.763684511185D-07-0.176314079293D+01 0.447034835815D-07
    0.952331906344D+00 0.205062500000D+03-0.261707849553D+01-0.813783897366D-08
    0.345371528968D-09 0.100000000000D+01 0.230300000000D+04 0.000000000000D+00
    0.200000000000D+01 0.000000000000D+00-0.838190317154D-08 0.880000000000D+02
    0.453618000000D+06 0.400000000000D+01 0.000000000000D+00 0.000000000000D+00
21 24  3  1  8  0  0.0 0.133057590574D-03-0.147792889038D-11 0.000000000000D+00
    0.560000000000D+02-0.502500000000D+02 0.431482258682D-08 0.240040036354D+01
   -0.253506004810D-05 0.252982204547D-01 0.734813511372D-05 0.515372132683D+04
    0.460800000000D+06 0.244006514549D-06-0.272534207714D+01 0.379979610443D-06
    0.962069470901D+00 0.235468750000D+03-0.617203510878D+00-0.781282543554D-08
   -0.266082511976D-09 0.100000000000D+01 0.230300000000D+04 0.000000000000D+00
    0.200000000000D+01 0.000000000000D+00-0.102445483208D-07 0.560000000000D+02
    0.453882000000D+06 0.400000000000D+01 0.000000000000D+00 0.000000000000D+00
22 24  3  1  8  0  0.0 0.229864381254D-04-0.602540239925D-11 0.000000000000D+00
    0.980000000000D+02 0.909375000000D+02 0.435696719946D-08 0.302401303849D+01
    0.469014048576D-05 0.144834814128D-01 0.671483576298D-05 0.515371646881D+04
    0.460800000000D+06 0.102445483208D-06 0.164393664973D+01 0.109896063805D-06
    0.961572432780D+00 0.250218750000D+03-0.114003698673D+01-0.776996650744D-08
    0.428589281035D-10 0.100000000000D+01 0.230300000000D+04 0.000000000000D+00
    0.280000000000D+01 0.000000000000D+00-0.111758708954D-07 0.980000000000D+02
    0.453618000000D+06 0.400000000000D+01 0.000000000000D+00 0.000000000000D+00
23 24  3  1  8  0  0.0 0.167223159224D-03 0.841282599140D-11 0.000000000000D+00
    0.530000000000D+02-0.656250000000D+01 0.418410285611D-08-0.670703889418D+00
   -0.301748514175D-06 0.399865256622D-02 0.841543078422D-05 0.515370725632D+04
    0.460800000000D+06 0.651925802231D-07-0.161670974592D+01 0.260770320892D-07
    0.977636285630D+00 0.225812500000D+03-0.295680432318D+01-0.786032741419D-08
    0.453233164695D-09 0.100000000000D+01 0.230300000000D+04 0.000000000000D+00
    0.200000000000D+01 0.000000000000D+00-0.838190317154D-08 0.821000000000D+03
    0.453618000000D+06 0.400000000000D+01 0.000000000000D+00 0.000000000000D+00
24 24  3  1  8  0  0.0-0.439768191427D-03-0.579802872380D-11 0.000000000000D+00
    0.640000000000D+02-0.846875000000D+01 0.520950271098D-08 0.672751769920D+00
   -0.279396772385D-06 0.151191739133D-01 0.979192554951D-05 0.515372726250D+04
    0.460800000000D+06-0.141561031342D-06 0.411624168244D+00 0.124797224999D-06
    0.934351177305D+00 0.178468750000D+03 0.968947207626D+00-0.847642450568D-08
   -0.471805366873D-09 0.100000000000D+01 0.230300000000D+04 0.000000000000D+00
    0.200000000000D+01 0.000000000000D+00 0.232830643654D-08 0.640000000000D+02
    0.453618000000D+06 0.400000000000D+01 0.000000000000D+00 0.000000000000D+00
25 24  3  1  8  0  0.0 0.490083359182D-03 0.102318153950D-11 0.000000000000D+00
    0.360000000000D+02 0.971562500000D+02 0.472662545435D-08-0.117520614446D+01
    0.512599945068D-05 0.118330537807D-01 0.752694904804D-05 0.515361003113D+04
    0.460800000000D+06 0.158324837685D-06 0.153705453384D+01 0.262632966042D-06
    0.950657239650D+00 0.229062500000D+03 0.107890471964D+01-0.826963017758D-08
    0.653598653579D-10 0.100000000000D+01 0.230300000000D+04 0.000000000000D+00
    0.200000000000D+01 0.000000000000D+00 0.558793544769D-08 0.360000000000D+02
    0.459711000000D+06 0.400000000000D+01 0.000000000000D+00 0.000000000000D+00
26 24  3  1  8  0  0.0 0.184650067240D-03-0.432009983342D-11 0.000000000000D+00
    0.560000000000D+02 0.861562500000D+02 0.501520890358D-08-0.198146945053D+01
    0.437907874584D-05 0.883703085128D-02 0.821053981781D-05 0.515360106278D+04
    0.460800000000D+06 0.149011611938D-07 0.147615568703D+01-0.104308128357D-06
    0.931455902969D+00 0.205562500000D+03 0.534576509452D+00-0.825212944860D-08
    0.171435712414D-09 0.100000000000D+01 0.230300000000D+04 0.000000000000D+00
    0.200000000000D+01 0.000000000000D+00 0.698491930962D-08 0.560000000000D+02
    0.453618000000D+06 0.400000000000D+01 0.000000000000D+00 0.000000000000D+00
27 24  3  1  8  0  0.0-0.832462683320D-05-0.306954461848D-11 0.000000000000D+00
    0.900000000000D+02 0.593750000000D+01 0.449161566525D-08 0.257149963406D+01
    0.176951289177D-06 0.124646512559D-01 0.370480120182D-05 0.515367781258D+04
    0.460800000000D+06-0.540167093277D-07 0.259450884263D+01-0.149011611938D-06
    0.963461770999D+00 0.310437500000D+03 0.764908050016D+00-0.813962476233D-08
   -0.632169189527D-10 0.100000000000D+01 0.230300000000D+04 0.000000000000D+00
    0.280000000000D+01 0.000000000000D+00 0.186264514923D-08 0.900000000000D+02
    0.453618000000D+06 0.400000000000D+01 0.000000000000D+00 0.000000000000D+00
